[
    {
        "Altitude(m)": 561284.3133545952,
        "Argument of Periapsis(deg)": 0.026491964442854003,
        "Eccentricity": 0.0,
        "Inclination(deg)": 53.0,
        "Latitude(deg)": -26.8363291316203,
        "Longitude(deg)": 9.534215088318506,
        "Mean Anomaly(deg)": -34.179028529689624,
        "RAAN(deg)": 134.96057347411207,
        "Satellite Name": "Starlink Shell 1 611",
        "Satellite Number": 611,
        "Semi-Major Axis(m)": 6931778.249405717,
        "Time(s)": 760
    },
    {
        "Altitude(m)": 561112.0835873174,
        "Argument of Periapsis(deg)": 0.02684054292236524,
        "Eccentricity": 0.0,
        "Inclination(deg)": 53.0,
        "Latitude(deg)": -26.370880590309852,
        "Longitude(deg)": 9.962664943450948,
        "Mean Anomaly(deg)": -33.55219732613296,
        "RAAN(deg)": 134.9600547040346,
        "Satellite Name": "Starlink Shell 1 611",
        "Satellite Number": 611,
        "Semi-Major Axis(m)": 6931778.249405717,
        "Time(s)": 770
    },
    {
        "Altitude(m)": 560940.5268111547,
        "Argument of Periapsis(deg)": 0.027189121401876473,
        "Eccentricity": 0.0,
        "Inclination(deg)": 53.0,
        "Latitude(deg)": -25.903859145014856,
        "Longitude(deg)": 10.387377493399635,
        "Mean Anomaly(deg)": -32.92536612257622,
        "RAAN(deg)": 134.9595359339571,
        "Satellite Name": "Starlink Shell 1 611",
        "Satellite Number": 611,
        "Semi-Major Axis(m)": 6931778.249405717,
        "Time(s)": 780
    },
    {
        "Altitude(m)": 560769.705752395,
        "Argument of Periapsis(deg)": 0.02753769988138771,
        "Eccentricity": 0.0,
        "Inclination(deg)": 53.0,
        "Latitude(deg)": -25.43530772569505,
        "Longitude(deg)": 10.808446518876552,
        "Mean Anomaly(deg)": -32.29853491901955,
        "RAAN(deg)": 134.95901716387965,
        "Satellite Name": "Starlink Shell 1 611",
        "Satellite Number": 611,
        "Semi-Major Axis(m)": 6931778.249405717,
        "Time(s)": 790
    },
    {
        "Altitude(m)": 560599.6826614406,
        "Argument of Periapsis(deg)": 0.02788627836089895,
        "Eccentricity": 0.0,
        "Inclination(deg)": 53.0,
        "Latitude(deg)": -24.965268374316366,
        "Longitude(deg)": 11.225964022893715,
        "Mean Anomaly(deg)": -31.67170371546279,
        "RAAN(deg)": 134.95849839380216,
        "Satellite Name": "Starlink Shell 1 611",
        "Satellite Number": 611,
        "Semi-Major Axis(m)": 6931778.249405717,
        "Time(s)": 800
    },
    {
        "Altitude(m)": 560430.5192848953,
        "Argument of Periapsis(deg)": 0.02823485684041019,
        "Eccentricity": 0.0,
        "Inclination(deg)": 53.0,
        "Latitude(deg)": -24.493782271872497,
        "Longitude(deg)": 11.64002074688496,
        "Mean Anomaly(deg)": -31.04487251190615,
        "RAAN(deg)": 134.95797962372473,
        "Satellite Name": "Starlink Shell 1 611",
        "Satellite Number": 611,
        "Semi-Major Axis(m)": 6931778.249405717,
        "Time(s)": 810
    },
    {
        "Altitude(m)": 560262.2768378811,
        "Argument of Periapsis(deg)": 0.028583435319921423,
        "Eccentricity": 0.0,
        "Inclination(deg)": 53.0,
        "Latitude(deg)": -24.020889764890388,
        "Longitude(deg)": 12.050706688568075,
        "Mean Anomaly(deg)": -30.41804130834936,
        "RAAN(deg)": 134.95746085364723,
        "Satellite Name": "Starlink Shell 1 611",
        "Satellite Number": 611,
        "Semi-Major Axis(m)": 6931778.249405717,
        "Time(s)": 820
    },
    {
        "Altitude(m)": 560095.0159766157,
        "Argument of Periapsis(deg)": 0.028932013799432665,
        "Eccentricity": 0.0,
        "Inclination(deg)": 53.0,
        "Latitude(deg)": -23.546630391421424,
        "Longitude(deg)": 12.458110108514871,
        "Mean Anomaly(deg)": -29.79121010479262,
        "RAAN(deg)": 134.95694208356977,
        "Satellite Name": "Starlink Shell 1 611",
        "Satellite Number": 611,
        "Semi-Major Axis(m)": 6931778.249405717,
        "Time(s)": 830
    },
    {
        "Altitude(m)": 559928.7967712181,
        "Argument of Periapsis(deg)": 0.029280592278943897,
        "Eccentricity": 0.0,
        "Inclination(deg)": 53.0,
        "Latitude(deg)": -23.07104290650968,
        "Longitude(deg)": 12.862318051029627,
        "Mean Anomaly(deg)": -29.16437890123597,
        "RAAN(deg)": 134.95642331349228,
        "Satellite Name": "Starlink Shell 1 611",
        "Satellite Number": 611,
        "Semi-Major Axis(m)": 6931778.249405717,
        "Time(s)": 840
    },
    {
        "Altitude(m)": 559763.6786788307,
        "Argument of Periapsis(deg)": 0.029629170758455132,
        "Eccentricity": 0.0,
        "Inclination(deg)": 53.0,
        "Latitude(deg)": -22.594165307141665,
        "Longitude(deg)": 13.263416866323269,
        "Mean Anomaly(deg)": -28.537547697679187,
        "RAAN(deg)": 134.9559045434148,
        "Satellite Name": "Starlink Shell 1 611",
        "Satellite Number": 611,
        "Semi-Major Axis(m)": 6931778.249405717,
        "Time(s)": 850
    },
    {
        "Altitude(m)": 559599.7205169846,
        "Argument of Periapsis(deg)": 0.02997774923796637,
        "Eccentricity": 0.0,
        "Inclination(deg)": 53.0,
        "Latitude(deg)": -22.11603485668341,
        "Longitude(deg)": 13.661491052886854,
        "Mean Anomaly(deg)": -27.910716494122543,
        "RAAN(deg)": 134.95538577333733,
        "Satellite Name": "Starlink Shell 1 611",
        "Satellite Number": 611,
        "Semi-Major Axis(m)": 6931778.249405717,
        "Time(s)": 860
    },
    {
        "Altitude(m)": 559436.980437314,
        "Argument of Periapsis(deg)": 0.030326327717477602,
        "Eccentricity": 0.0,
        "Inclination(deg)": 53.0,
        "Latitude(deg)": -21.636688108798438,
        "Longitude(deg)": 14.056624622372317,
        "Mean Anomaly(deg)": -27.283885290565784,
        "RAAN(deg)": 134.9548670032599,
        "Satellite Name": "Starlink Shell 1 611",
        "Satellite Number": 611,
        "Semi-Major Axis(m)": 6931778.249405717,
        "Time(s)": 870
    },
    {
        "Altitude(m)": 559275.5158995314,
        "Argument of Periapsis(deg)": 0.030674906196988847,
        "Eccentricity": 0.0,
        "Inclination(deg)": 53.0,
        "Latitude(deg)": -21.156160930863415,
        "Longitude(deg)": 14.44889994395869,
        "Mean Anomaly(deg)": -26.65705408700911,
        "RAAN(deg)": 134.9543482331824,
        "Satellite Name": "Starlink Shell 1 611",
        "Satellite Number": 611,
        "Semi-Major Axis(m)": 6931778.249405717,
        "Time(s)": 880
    },
    {
        "Altitude(m)": 559115.383645776,
        "Argument of Periapsis(deg)": 0.031023484676500086,
        "Eccentricity": 0.0,
        "Inclination(deg)": 53.0,
        "Latitude(deg)": -20.67448852687658,
        "Longitude(deg)": 14.838398270530917,
        "Mean Anomaly(deg)": -26.030222883452353,
        "RAAN(deg)": 134.9538294631049,
        "Satellite Name": "Starlink Shell 1 611",
        "Satellite Number": 611,
        "Semi-Major Axis(m)": 6931778.249405717,
        "Time(s)": 890
    },
    {
        "Altitude(m)": 558956.6396752824,
        "Argument of Periapsis(deg)": 0.03137206315601132,
        "Eccentricity": 0.0,
        "Inclination(deg)": 53.0,
        "Latitude(deg)": -20.191705459871475,
        "Longitude(deg)": 15.225200265605112,
        "Mean Anomaly(deg)": -25.403391679895606,
        "RAAN(deg)": 134.95331069302745,
        "Satellite Name": "Starlink Shell 1 611",
        "Satellite Number": 611,
        "Semi-Major Axis(m)": 6931778.249405717,
        "Time(s)": 900
    },
    {
        "Altitude(m)": 558799.3392194044,
        "Argument of Periapsis(deg)": 0.03172064163552255,
        "Eccentricity": 0.0,
        "Inclination(deg)": 53.0,
        "Latitude(deg)": -19.707845673844034,
        "Longitude(deg)": 15.609385018043257,
        "Mean Anomaly(deg)": -24.776560476338936,
        "RAAN(deg)": 134.95279192294996,
        "Satellite Name": "Starlink Shell 1 611",
        "Satellite Number": 611,
        "Semi-Major Axis(m)": 6931778.249405717,
        "Time(s)": 910
    },
    {
        "Altitude(m)": 558643.5367170057,
        "Argument of Periapsis(deg)": 0.0320692201150338,
        "Eccentricity": 0.0,
        "Inclination(deg)": 53.0,
        "Latitude(deg)": -19.222942515197104,
        "Longitude(deg)": 15.99103057022415,
        "Mean Anomaly(deg)": -24.149729272782174,
        "RAAN(deg)": 134.9522731528725,
        "Satellite Name": "Starlink Shell 1 611",
        "Satellite Number": 611,
        "Semi-Major Axis(m)": 6931778.249405717,
        "Time(s)": 920
    },
    {
        "Altitude(m)": 558489.285790242,
        "Argument of Periapsis(deg)": 0.032417798594545036,
        "Eccentricity": 0.0,
        "Inclination(deg)": 53.0,
        "Latitude(deg)": -18.737028753714203,
        "Longitude(deg)": 16.370214446723683,
        "Mean Anomaly(deg)": -23.52289806922553,
        "RAAN(deg)": 134.95175438279503,
        "Satellite Name": "Starlink Shell 1 611",
        "Satellite Number": 611,
        "Semi-Major Axis(m)": 6931778.249405717,
        "Time(s)": 930
    },
    {
        "Altitude(m)": 558336.6392207076,
        "Argument of Periapsis(deg)": 0.03276637707405627,
        "Eccentricity": 0.0,
        "Inclination(deg)": 53.0,
        "Latitude(deg)": -18.250136603073702,
        "Longitude(deg)": 16.747012670566598,
        "Mean Anomaly(deg)": -22.896066865668747,
        "RAAN(deg)": 134.95123561271757,
        "Satellite Name": "Starlink Shell 1 611",
        "Satellite Number": 611,
        "Semi-Major Axis(m)": 6931778.249405717,
        "Time(s)": 940
    }
]